NORAD_CAT_ID,OBJECT_NAME,OBJECT_TYPE,EPOCH,MEAN_MOTION,ECCENTRICITY,INCLINATION,RA_OF_ASC_NODE,ARG_OF_PERICENTER,MEAN_ANOMALY,BSTAR,MEAN_MOTION_DOT,MEAN_MOTION_DDOT,TLE_LINE0,TLE_LINE1,TLE_LINE2,SEMIMAJOR_AXIS,PERIOD,APOGEE,PERIGEE,DECAYED
56489.0,STARLINK-5923,PAYLOAD,2024-01-01 01:14:36,14.98335307,0.0002834,69.9996,318.1262,274.2936,85.7899,-0.00018231,-2.268e-05,0.0,0 STARLINK-5923,1 56489U 23064AT  24001.05180564 -.00002268  00000-0 -18231-3 0  9991,2 56489  69.9996 318.1262 0002834 274.2936  85.7899 14.98335307 36968,6950.176,96.107,574.011,570.072,0.0
56489.0,STARLINK-5923,PAYLOAD,2024-01-01 06:02:59,14.98351126,0.0002791,69.9998,317.6213,274.8979,85.1862,-0.00036295,-4.423e-05,0.0,0 STARLINK-5923,1 56489U 23064AT  24001.25207938 -.00004423  00000-0 -36295-3 0  9993,2 56489  69.9998 317.6213 0002791 274.8979  85.1862 14.98351126 36999,6950.128,96.106,573.932,570.053,0.0
56489.0,STARLINK-5923,PAYLOAD,2024-01-01 20:28:12,14.98330488,0.0002606,69.9999,316.1066,267.0938,92.9923,5.2911e-05,5.38e-06,0.0,0 STARLINK-5923,1 56489U 23064AT  24001.85292290  .00000538  00000-0  52911-4 0  9999,2 56489  69.9999 316.1066 0002606 267.0938  92.9923 14.98330488 37087,6950.191,96.107,573.868,570.245,0.0
56489.0,STARLINK-5923,PAYLOAD,2024-01-01 22:04:20,14.98330441,0.0002627,69.9998,315.9383,262.2182,97.8679,4.9879e-05,5.02e-06,0.0,0 STARLINK-5923,1 56489U 23064AT  24001.91968258  .00000502  00000-0  49879-4 0  9990,2 56489  69.9998 315.9383 0002627 262.2182  97.8679 14.98330441 36738,6950.192,96.107,573.882,570.231,0.0
56489.0,STARLINK-5923,PAYLOAD,2024-01-02 06:05:00,14.98332346,0.0002605,69.9998,315.0968,262.7671,97.3192,6.811e-05,7.2e-06,0.0,0 STARLINK-5923,1 56489U 23064AT  24002.25348065  .00000720  00000-0  68110-4 0  9997,2 56489  69.9998 315.0968 0002605 262.7671  97.3192 14.98332346 36788,6950.186,96.107,573.861,570.24,0.0
56489.0,STARLINK-5923,PAYLOAD,2024-01-02 20:30:13,14.98328038,0.000252,70.0,313.5828,258.7874,101.3002,1.2688e-05,5.8e-07,0.0,0 STARLINK-5923,1 56489U 23064AT  24002.85432429  .00000058  00000-0  12688-4 0  9994,2 56489  70.0000 313.5828 0002520 258.7874 101.3002 14.98328038 37239,6950.199,96.107,573.815,570.313,0.0
56489.0,STARLINK-5923,PAYLOAD,2024-01-02 22:06:21,14.98327758,0.0002557,70.0,313.4145,255.8329,104.2546,5.8656e-06,-2.3e-07,0.0,0 STARLINK-5923,1 56489U 23064AT  24002.92108442 -.00000023  00000-0  58656-5 0  9996,2 56489  70.0000 313.4145 0002557 255.8329 104.2546 14.98327758 36886,6950.2,96.107,573.842,570.288,0.0
56489.0,STARLINK-5923,PAYLOAD,2024-01-03 06:07:02,14.98327354,0.0002738,69.9994,312.5716,267.3115,92.7731,-1.2886e-05,-2.47e-06,0.0,0 STARLINK-5923,1 56489U 23064AT  24003.25488599 -.00000247  00000-0 -12886-4 0  9990,2 56489  69.9994 312.5716 0002738 267.3115  92.7731 14.98327354 36936,6950.201,96.107,573.969,570.163,0.0
56489.0,STARLINK-5923,PAYLOAD,2024-01-03 20:32:14,14.98331523,0.0002791,69.9994,311.0562,268.0887,91.9953,-4.1438e-05,-5.87e-06,0.0,0 STARLINK-5923,1 56489U 23064AT  24003.85572427 -.00000587  00000-0 -41438-4 0  9992,2 56489  69.9994 311.0562 0002791 268.0887  91.9953 14.98331523 37382,6950.188,96.107,573.993,570.113,0.0
56489.0,STARLINK-5923,PAYLOAD,2024-01-03 22:08:22,14.98332005,0.0002787,69.9994,310.8878,267.8295,92.2545,-3.4926e-05,-5.1e-06,0.0,0 STARLINK-5923,1 56489U 23064AT  24003.92248368 -.00000510  00000-0 -34926-4 0  9994,2 56489  69.9994 310.8878 0002787 267.8295  92.2545 14.98332005 37033,6950.187,96.107,573.989,570.115,0.0
56489.0,STARLINK-5923,PAYLOAD,2024-01-04 04:32:54,14.98332646,0.0002782,69.9994,310.2146,267.4222,92.6618,-2.2443e-05,-3.61e-06,0.0,0 STARLINK-5923,1 56489U 23064AT  24004.18952255 -.00000361  00000-0 -22443-4 0  9995,2 56489  69.9994 310.2146 0002782 267.4222  92.6618 14.98332646 37076,6950.185,96.107,573.983,570.116,0.0
56489.0,STARLINK-5923,PAYLOAD,2024-01-04 20:34:15,14.98327148,0.0002839,69.9994,308.5314,266.8603,93.2232,6.6983e-06,-1.3e-07,0.0,0 STARLINK-5923,1 56489U 23064AT  24004.85712464 -.00000013  00000-0  66983-5 0  9996,2 56489  69.9994 308.5314 0002839 266.8603  93.2232 14.98327148 37533,6950.202,96.107,574.04,570.094,0.0
56489.0,STARLINK-5923,PAYLOAD,2024-01-04 22:10:23,14.98327452,0.0002839,69.9995,308.3629,266.648,93.4354,9.8811e-06,2.5e-07,0.0,0 STARLINK-5923,1 56489U 23064AT  24004.92388441  .00000025  00000-0  98811-5 0  9995,2 56489  69.9995 308.3629 0002839 266.6480  93.4354 14.98327452 37188,6950.201,96.107,574.039,570.093,0.0
56489.0,STARLINK-5923,PAYLOAD,2024-01-05 06:11:03,14.98331589,0.0002789,69.9995,307.5218,265.7081,94.3759,5.5864e-05,5.74e-06,0.0,0 STARLINK-5923,1 56489U 23064AT  24005.25768065  .00000574  00000-0  55864-4 0  9995,2 56489  69.9995 307.5218 0002789 265.7081  94.3759 14.98331589 37235,6950.188,96.107,573.991,570.115,0.0
56489.0,STARLINK-5923,PAYLOAD,2024-01-05 20:36:16,14.98330669,0.0002653,69.9998,306.0067,258.9093,101.1768,1.4484e-05,8e-07,0.0,0 STARLINK-5923,1 56489U 23064AT  24005.85852159  .00000080  00000-0  14484-4 0  9994,2 56489  69.9998 306.0067 0002653 258.9093 101.1768 14.98330669 37685,6950.191,96.107,573.9,570.212,0.0
56489.0,STARLINK-5923,PAYLOAD,2024-01-05 22:12:24,14.98330348,0.0002658,69.9998,305.8385,259.9634,100.1225,9.1155e-06,1.6e-07,0.0,0 STARLINK-5923,1 56489U 23064AT  24005.92528194  .00000016  00000-0  91155-5 0  9991,2 56489  69.9998 305.8385 0002658 259.9634 100.1225 14.98330348 37335,6950.192,96.107,573.904,570.209,0.0
56489.0,STARLINK-5923,PAYLOAD,2024-01-06 06:13:04,14.98331009,0.0002658,69.9997,304.9969,261.2398,98.846,1.4666e-05,8.2e-07,0.0,0 STARLINK-5923,1 56489U 23064AT  24006.25908124  .00000082  00000-0  14666-4 0  9997,2 56489  69.9997 304.9969 0002658 261.2398  98.8460 14.98331009 37389,6950.19,96.107,573.902,570.207,0.0
56489.0,STARLINK-5923,PAYLOAD,2024-01-06 22:14:25,14.98329587,0.0002652,69.9996,303.3136,261.4685,98.6174,-1.2178e-05,-2.38e-06,0.0,0 STARLINK-5923,1 56489U 23064AT  24006.92668241 -.00000238  00000-0 -12178-4 0  9995,2 56489  69.9996 303.3136 0002652 261.4685  98.6174 14.98329587 37481,6950.194,96.107,573.902,570.216,0.0
56489.0,STARLINK-5923,PAYLOAD,2024-01-07 03:02:49,14.98328892,0.0002601,69.9997,302.8086,260.0405,100.046,1.1335e-05,4.2e-07,0.0,0 STARLINK-5923,1 56489U 23064AT  24007.12696214  .00000042  00000-0  11335-4 0  9994,2 56489  69.9997 302.8086 0002601 260.0405 100.0460 14.98328892 37876,6950.196,96.107,573.869,570.254,0.0
56489.0,STARLINK-5923,PAYLOAD,2024-01-07 06:15:05,14.98329903,0.0002588,69.9998,302.4718,258.6602,101.4266,2.4095e-05,1.95e-06,0.0,0 STARLINK-5923,1 56489U 23064AT  24007.26048109  .00000195  00000-0  24095-4 0  9999,2 56489  69.9998 302.4718 0002588 258.6602 101.4266 14.98329903 37537,6950.193,96.107,573.857,570.259,0.0
56489.0,STARLINK-5923,PAYLOAD,2024-01-07 22:16:26,14.9832795,0.0002771,69.9998,300.789,261.9436,98.1409,3.6678e-07,-8.9e-07,0.0,0 STARLINK-5923,1 56489U 23064AT  24007.92808233 -.00000089  00000-0  36678-6 0  9999,2 56489  69.9998 300.7890 0002771 261.9436  98.1409 14.98327950 37637,6950.199,96.107,573.99,570.138,0.0
56489.0,STARLINK-5923,PAYLOAD,2024-01-08 03:04:50,14.98338956,0.0002476,69.9998,300.284,256.8635,103.2247,-0.00017531,-2.184e-05,0.0,0 STARLINK-5923,1 56489U 23064AT  24008.12836001 -.00002184  00000-0 -17531-3 0  9999,2 56489  69.9998 300.2840 0002476 256.8635 103.2247 14.98338956 38023,6950.165,96.106,573.751,570.309,0.0
56489.0,STARLINK-5923,PAYLOAD,2024-01-08 06:17:06,14.98329075,0.0002544,69.9998,299.9472,258.7469,101.3405,4.8751e-06,-3.5e-07,0.0,0 STARLINK-5923,1 56489U 23064AT  24008.26188187 -.00000035  00000-0  48751-5 0  9991,2 56489  69.9998 299.9472 0002544 258.7469 101.3405 14.98329075 37688,6950.196,96.107,573.829,570.293,0.0
56489.0,STARLINK-5923,PAYLOAD,2024-01-08 22:18:27,14.98327122,0.000248,70.0001,298.265,251.6522,108.4367,-9.9975e-06,-2.12e-06,0.0,0 STARLINK-5923,1 56489U 23064AT  24008.92948387 -.00000212  00000-0 -99975-5 0  9992,2 56489  70.0001 298.2650 0002480 251.6522 108.4367 14.98327122 37784,6950.202,96.107,573.79,570.343,0.0
56489.0,STARLINK-5923,PAYLOAD,2024-01-09 04:42:59,14.98327263,0.0002488,70.0,297.5917,252.3699,107.7189,-8.6578e-06,-1.96e-06,0.0,0 STARLINK-5923,1 56489U 23064AT  24009.19652425 -.00000196  00000-0 -86578-5 0  9993,2 56489  70.0000 297.5917 0002488 252.3699 107.7189 14.98327263 38187,6950.201,96.107,573.796,570.337,0.0
56489.0,STARLINK-5923,PAYLOAD,2024-01-09 22:20:27,14.98332524,0.000257,69.9996,295.7394,256.2597,103.8276,4.0432e-05,3.9e-06,0.0,0 STARLINK-5923,1 56489U 23064AT  24009.93087924  .00000390  00000-0  40432-4 0  9993,2 56489  69.9996 295.7394 0002570 256.2597 103.8276 14.98332524 37931,6950.185,96.107,573.836,570.264,0.0
56489.0,STARLINK-5923,PAYLOAD,2024-01-10 04:45:00,14.98334076,0.000254,69.9998,295.0666,254.9497,105.1381,5.6683e-05,5.84e-06,0.0,0 STARLINK-5923,1 56489U 23064AT  24010.19791729  .00000584  00000-0  56683-4 0  9998,2 56489  69.9998 295.0666 0002540 254.9497 105.1381 14.98334076 38330,6950.18,96.107,573.811,570.28,0.0
56489.0,STARLINK-5923,PAYLOAD,2024-01-10 19:10:13,14.98326472,0.0002494,69.9999,293.5507,255.239,104.8493,-1.6346e-06,-1.12e-06,0.0,0 STARLINK-5923,1 56489U 23064AT  24010.79876345 -.00000112  00000-0 -16346-5 0  9994,2 56489  69.9999 293.5507 0002494 255.2390 104.8493 14.98326472 38423,6950.204,96.107,573.802,570.335,0.0
56489.0,STARLINK-5923,PAYLOAD,2024-01-11 04:47:01,14.98331268,0.0002452,69.9999,292.5404,264.6383,95.4496,5.0324e-05,5.08e-06,0.0,0 STARLINK-5923,1 56489U 23064AT  24011.19931985  .00000508  00000-0  50324-4 0  9991,2 56489  69.9999 292.5404 0002452 264.6383  95.4496 14.98331268 38122,6950.189,96.107,573.758,570.35,0.0
56489.0,STARLINK-5923,PAYLOAD,2024-01-11 19:12:13,14.98363162,0.0002246,70.0003,291.0248,265.5231,94.5671,-0.00048191,-5.843e-05,0.0,0 STARLINK-5923,1 56489U 23064AT  24011.80015745 -.00005843  00000-0 -48191-3 0  9993,2 56489  70.0003 291.0248 0002246 265.5231  94.5671 14.98363162 38576,6950.09,96.105,573.516,570.394,0.0
